{"type":"FeatureCollection","features":[{"type":"Feature","properties":{"slug":"bankya","name_bg":"Банкя","name_en":"Bankya","source":"OpenStreetMap contributors, ODbL 1.0"},"geometry":{"type":"MultiPolygon","coordinates":[[[[23.13731,42.666398],[23.124004,42.670012],[23.118341,42.667234],[23.115134,42.672611],[23.109502,42.674395],[23.109842,42.684171],[23.103011,42.689464],[23.10582,42.6949076],[23.1423084,42.6668853],[23.13731,42.666398]]],[[[23.104959,42.694454],[23.09763,42.695721],[23.08585,42.691858],[23.079482,42.695094],[23.068667,42.693855],[23.066343,42.698535],[23.059231,42.697189],[23.051106,42.702238],[23.05645,42.712732],[23.104959,42.694454]]],[[[23.062898285,42.719221514],[23.060638,42.715982],[23.05645,42.712732],[23.062898285,42.719221514]]],[[[23.063002,42.719444],[23.0649,42.722134],[23.066492019,42.722838226],[23.062898285,42.719221514],[23.063002,42.719444]]],[[[23.075971135,42.732377949],[23.071647,42.725255],[23.066492019,42.722838226],[23.075971135,42.732377949]]],[[[23.076039,42.732492],[23.07662,42.733435],[23.077095,42.733509],[23.075971135,42.732377949],[23.076039,42.732492]]],[[[23.086040141,42.736389061],[23.083163,42.733817],[23.077095,42.733509],[23.086040141,42.736389061]]],[[[23.086057,42.736402],[23.087176,42.737651],[23.08918,42.7374],[23.086040141,42.736389061],[23.086057,42.736402]]],[[[23.08951,42.737404],[23.089567,42.737434],[23.08918,42.7374],[23.08951,42.737404]]],[[[23.098412,42.737191],[23.092261,42.73448],[23.088486,42.736474],[23.089556191,42.737391484],[23.098412,42.737191]]],[[[23.099323098,42.737186807],[23.098895,42.736826],[23.098412,42.737191],[23.099323098,42.737186807]]],[[[23.099343,42.737202],[23.099577,42.737357],[23.099725513,42.737184955],[23.099323098,42.737186807],[23.099343,42.737202]]],[[[23.100868735,42.737179694],[23.099861,42.737028],[23.099725513,42.737184955],[23.100868735,42.737179694]]],[[[23.101,42.737227],[23.116819,42.740032],[23.131892272,42.737036928],[23.100868735,42.737179694],[23.101,42.737227]]],[[[23.141463618,42.736992882],[23.136146,42.736231],[23.131892272,42.737036928],[23.141463618,42.736992882]]],[[[23.141542,42.737017],[23.143122,42.737213],[23.143483801,42.736983586],[23.141463618,42.736992882],[23.141542,42.737017]]],[[[23.143703832,42.736982573],[23.143575,42.736956],[23.143483801,42.736983586],[23.143703832,42.736982573]]],[[[23.143969,42.737078],[23.144294,42.737108],[23.144608142,42.736978412],[23.143703832,42.736982573],[23.143969,42.737078]]],[[[23.14509564,42.736976168],[23.14483,42.736859],[23.144608142,42.736978412],[23.14509564,42.736976168]]],[[[23.145119,42.736979],[23.1451757,42.7369758],[23.14509564,42.736976168],[23.145119,42.736979]]],[[[23.145199,42.736974],[23.14548,42.736902],[23.145546071,42.736662899],[23.1451757,42.7369758],[23.145199,42.736974]]],[[[23.153906563,42.729599688],[23.14951,42.731769],[23.145546071,42.736662899],[23.153906563,42.729599688]]],[[[23.154007,42.729547],[23.158486,42.728122],[23.157770604,42.726335223],[23.153906563,42.729599688],[23.154007,42.729547]]],[[[23.1582744,42.7259096],[23.15765,42.726034],[23.157770604,42.726335223],[23.1582744,42.7259096]]],[[[23.158322,42.725982],[23.15862006,42.725931047],[23.1582744,42.7259096],[23.158322,42.725982]]],[[[23.163584659,42.726239077],[23.163341,42.725124],[23.15862006,42.725931047],[23.163584659,42.726239077]]],[[[23.164061,42.728419],[23.175107,42.730938],[23.187906,42.730097],[23.188680414,42.727796155],[23.163584659,42.726239077],[23.164061,42.728419]]],[[[23.196801,42.7283],[23.18922,42.726193],[23.188680414,42.727796155],[23.196801,42.7283]]],[[[23.196786168,42.727672361],[23.1967835,42.7277159],[23.196801,42.7283],[23.196786168,42.727672361]]],[[[23.1968246,42.7270453],[23.2004493,42.7226819],[23.2012944,42.7171897],[23.196525857,42.716656559],[23.1968246,42.7270453]]],[[[23.19651569,42.716226345],[23.1964568,42.7162398],[23.196525857,42.716656559],[23.19651569,42.716226345]]],[[[23.1974709,42.7160081],[23.2049498,42.7156475],[23.2032701,42.7142138],[23.206603,42.7102705],[23.196148096,42.700670554],[23.1974709,42.7160081]]],[[[23.1960696,42.6973488],[23.1950853,42.6987398],[23.196148096,42.700670554],[23.1960696,42.6973488]]],[[[23.195836417,42.697114939],[23.1959252,42.6973368],[23.1960696,42.6973488],[23.195836417,42.697114939]]],[[[23.1951661,42.6956029],[23.1932545,42.6938843],[23.192860117,42.694129991],[23.195836417,42.697114939],[23.1951661,42.6956029]]],[[[23.1897721,42.691033],[23.1920574,42.6942196],[23.192860117,42.694129991],[23.1897721,42.691033]]],[[[23.172750389,42.694484436],[23.1877342,42.6947899],[23.1897721,42.691033],[23.172750389,42.694484436]]],[[[23.1714257,42.6940692],[23.168134,42.6911764],[23.1581963,42.6943271],[23.1571124,42.6976553],[23.1714257,42.6940692]]],[[[23.1571018,42.6976221],[23.1569295,42.6970529],[23.156749385,42.696900776],[23.1571124,42.6976553],[23.1571018,42.6976221]]],[[[23.142775106,42.667855344],[23.139523,42.6772979],[23.1501442,42.6861585],[23.156749385,42.696900776],[23.142775106,42.667855344]]],[[[23.1430878,42.6675496],[23.1423084,42.6668853],[23.142775106,42.667855344],[23.1430878,42.6675496]]]]}},{"type":"Feature","properties":{"slug":"ilinden","name_bg":"Илинден","name_en":"Ilinden","source":"OpenStreetMap contributors, ODbL 1.0"},"geometry":{"type":"MultiPolygon","coordinates":[[[[23.2853489,42.7042652],[23.2848605,42.7059277],[23.2727203,42.7099846],[23.2743364,42.7110409],[23.2760805,42.7136721],[23.2767749,42.7141438],[23.2781502,42.7155339],[23.2804065,42.7174225],[23.2948662,42.72299],[23.3032644,42.7189641],[23.3032986,42.7185837],[23.302445,42.7163695],[23.2977344,42.7148459],[23.3040941,42.7060259],[23.2992398,42.7072113],[23.2986372,42.7051258],[23.2977464,42.7019866],[23.2853489,42.7042652]]]]}},{"type":"Feature","properties":{"slug":"iskar","name_bg":"Искър","name_en":"Iskar","source":"OpenStreetMap contributors, ODbL 1.0"},"geometry":{"type":"MultiPolygon","coordinates":[[[[23.3914411,42.6568053],[23.3891411,42.6590903],[23.389983376,42.659703988],[23.389232,42.6611981],[23.389817,42.6630119],[23.3815205,42.6740278],[23.3940506,42.6717827],[23.4010833,42.6861897],[23.4025965,42.6857605],[23.4108268,42.6836887],[23.4232423,42.6889584],[23.438411233,42.688533544],[23.4369003,42.6909254],[23.441545638,42.688445754],[23.4528324,42.6897067],[23.4571587,42.6649686],[23.4471076,42.6679937],[23.4550891,42.655455],[23.4480208,42.6331966],[23.4161948,42.6371912],[23.4145551,42.6375743],[23.4008134,42.6436959],[23.3914411,42.6568053]]]]}},{"type":"Feature","properties":{"slug":"izgrev","name_bg":"Изгрев","name_en":"Izgrev","source":"OpenStreetMap contributors, ODbL 1.0"},"geometry":{"type":"MultiPolygon","coordinates":[[[[23.3364904,42.6578381],[23.3378421,42.6704062],[23.3361748,42.6725019],[23.3361882,42.6726835],[23.3475935,42.683446],[23.367879,42.668971],[23.3624471,42.6653905],[23.3582431,42.6636152],[23.3463887,42.6590876],[23.3450424,42.6587807],[23.3401886,42.6577679],[23.3389282,42.6575214],[23.3385005,42.6574739],[23.3377547,42.657472],[23.3364692,42.6575682],[23.3364678,42.6576089],[23.3364904,42.6578381]]]]}},{"type":"Feature","properties":{"slug":"krasna-polyana","name_bg":"Красна поляна","name_en":"Krasna poliana","source":"OpenStreetMap contributors, ODbL 1.0"},"geometry":{"type":"MultiPolygon","coordinates":[[[[23.2334329,42.6867652],[23.2322639,42.6874255],[23.2314256,42.6880995],[23.2303108,42.690264],[23.2303006,42.6903706],[23.2302819,42.6906396],[23.2302683,42.6910674],[23.2302537,42.6916071],[23.2303624,42.708938],[23.2727203,42.7099846],[23.2977464,42.7019866],[23.2944668,42.6937895],[23.2852199,42.6889084],[23.2839829,42.6891213],[23.2802473,42.6921868],[23.2741128,42.685396],[23.2737299,42.6865014],[23.2687711,42.6901474],[23.2663925,42.6899076],[23.2588881,42.6915215],[23.2541848,42.6903756],[23.2535264,42.6921435],[23.25349,42.6922458],[23.2356881,42.6857219],[23.2354636,42.685775],[23.2334329,42.6867652]]]]}},{"type":"Feature","properties":{"slug":"krasno-selo","name_bg":"Красно село","name_en":"Krasno selo","source":"OpenStreetMap contributors, ODbL 1.0"},"geometry":{"type":"MultiPolygon","coordinates":[[[[23.2795672,42.6682086],[23.2747392,42.6702747],[23.2740402,42.6707061],[23.2693974,42.6740039],[23.2692022,42.6742226],[23.2774007,42.6835666],[23.2741128,42.685396],[23.2776042,42.6901374],[23.2784491,42.6909388],[23.2802473,42.6921868],[23.2852199,42.6889084],[23.2871286,42.6901129],[23.2970127,42.6901054],[23.305145,42.6928673],[23.3053201,42.6926802],[23.3091723,42.6947024],[23.312071,42.6961643],[23.312255,42.6962474],[23.3126339,42.6962283],[23.3140149,42.6969079],[23.3152638,42.6967083],[23.3139738,42.6894705],[23.3012962,42.684481],[23.3026195,42.6794546],[23.3023768,42.6791989],[23.3004329,42.6788398],[23.2948923,42.6723356],[23.2945067,42.671922],[23.2926736,42.6700061],[23.2880388,42.6652481],[23.287169,42.6655496],[23.2836288,42.6667826],[23.2832293,42.666922],[23.2824858,42.6671791],[23.282387,42.667215],[23.2823216,42.6672374],[23.2822454,42.6672637],[23.2821774,42.6672871],[23.2813693,42.6675657],[23.2802396,42.6679566],[23.2798326,42.6681067],[23.2797391,42.6681412],[23.2795672,42.6682086]]]]}},{"type":"Feature","properties":{"slug":"kremikovtsi","name_bg":"Кремиковци","name_en":"Kremikovci","source":"OpenStreetMap contributors, ODbL 1.0"},"geometry":{"type":"MultiPolygon","coordinates":[[[[23.442272,42.6866209],[23.441545638,42.688445754],[23.438038,42.68719],[23.4271646,42.6888382],[23.4270442,42.6884062],[23.4232423,42.6889584],[23.4227985,42.6890467],[23.4263332,42.6975449],[23.3992447,42.7046766],[23.3989768,42.7053777],[23.3921312,42.7097091],[23.392223,42.7100092],[23.3743689,42.7163183],[23.374284977,42.716638821],[23.3669894,42.721272],[23.3665838,42.7214596],[23.3548773,42.7269791],[23.3547702,42.7270548],[23.3551393,42.7282787],[23.3542412,42.7353122],[23.3531029,42.7396068],[23.3570168,42.7475743],[23.374555487,42.753672298],[23.3797449,42.7606542],[23.3809598,42.7606901],[23.3986878,42.7384648],[23.439903516,42.719146101],[23.4408809,42.7277041],[23.44385044,42.730569804],[23.4580142,42.770091],[23.461523018,42.777194927],[23.4597431,42.7801263],[23.470358696,42.798057318],[23.4721518,42.8151237],[23.4802664,42.8234145],[23.4803858,42.8329154],[23.488561227,42.841036284],[23.4962947,42.8592962],[23.496352,42.859363],[23.509147,42.864281],[23.519788,42.856884],[23.520401,42.856859],[23.521378,42.856558],[23.5229705,42.8563616],[23.524454,42.856055],[23.568409,42.835522],[23.577254,42.84695],[23.594003,42.851638],[23.596309,42.855714],[23.60722,42.860651],[23.622216,42.856271],[23.62462,42.854302],[23.632511,42.856556],[23.635797,42.85248],[23.6362884,42.8386694],[23.65083,42.84531],[23.658912118,42.84189409],[23.676921,42.844461],[23.677224,42.844419],[23.678666,42.834345],[23.646943723,42.786473854],[23.646552,42.7758032],[23.6412967,42.772891],[23.6402071,42.767989],[23.636248903,42.770334618],[23.6086271,42.7266762],[23.6003281,42.7161276],[23.5943712,42.7099065],[23.5796152,42.7102992],[23.5796221,42.7080673],[23.549972,42.703862],[23.5481568,42.7039898],[23.547338,42.698852],[23.544653054,42.688479545],[23.545987,42.680656],[23.542784,42.680516],[23.5200635,42.6843302],[23.520874,42.679534],[23.49732,42.675075],[23.4618662,42.7035916],[23.461870714,42.704702695],[23.4527473,42.6882568],[23.442272,42.6866209]],[[23.4399907,42.7190149],[23.4401673,42.7187815],[23.440685329,42.718779648],[23.439903516,42.719146101],[23.4399907,42.7190149]],[[23.4416984,42.7183048],[23.4413486,42.7185207],[23.440685329,42.718779648],[23.4416984,42.7183048]],[[23.4631812,42.706877],[23.4621356,42.7053669],[23.461870714,42.704702695],[23.4631812,42.706877]]]]}},{"type":"Feature","properties":{"slug":"lyulin","name_bg":"Люлин","name_en":"Lyulin","source":"OpenStreetMap contributors, ODbL 1.0"},"geometry":{"type":"MultiPolygon","coordinates":[[[[23.1950853,42.6987398],[23.196801,42.7283],[23.2121248,42.7451882],[23.2268093,42.7424977],[23.2378757,42.7364092],[23.2410964,42.7385118],[23.2478141,42.7347872],[23.2502256,42.7379526],[23.2505519,42.7384143],[23.2561126,42.7457421],[23.2689208,42.7341394],[23.2682942,42.7336983],[23.268332,42.7333091],[23.2668909,42.7315862],[23.2630279,42.7278374],[23.2619923,42.7267684],[23.2640086,42.7256714],[23.264492,42.7254014],[23.2651721,42.7250214],[23.2652374,42.7249848],[23.2653225,42.7249347],[23.2701237,42.7223023],[23.2799341,42.7169954],[23.2742115,42.7108392],[23.2705805,42.7083721],[23.2638798,42.7066703],[23.2511854,42.7058225],[23.2394039,42.7089763],[23.2320664,42.7076582],[23.2317597,42.7077412],[23.2307596,42.7085844],[23.2303624,42.708938],[23.2296675,42.7086873],[23.1960696,42.6973488],[23.1950853,42.6987398]]]]}},{"type":"Feature","properties":{"slug":"lozenets","name_bg":"Лозенец","name_en":"Lozenets","source":"OpenStreetMap contributors, ODbL 1.0"},"geometry":{"type":"MultiPolygon","coordinates":[[[[23.3127319,42.6425779],[23.316497,42.6592642],[23.3128414,42.6576118],[23.3139177,42.6707651],[23.3118189,42.6719739],[23.3107339,42.6719327],[23.3094856,42.6724549],[23.321778,42.6784701],[23.3208067,42.6833383],[23.3216955,42.6836371],[23.3223786,42.6838623],[23.3259424,42.6850214],[23.3288596,42.685979],[23.3296405,42.6862311],[23.3307107,42.686622],[23.3320449,42.6855297],[23.3346661,42.6833492],[23.3356789,42.682484],[23.3359282,42.6822864],[23.3410952,42.6780124],[23.3417676,42.67748],[23.3361748,42.6725019],[23.333703,42.6330679],[23.3307453,42.6342658],[23.3284773,42.6352022],[23.3252157,42.6365142],[23.3231656,42.6373661],[23.3210092,42.638225],[23.3174226,42.6397143],[23.3124634,42.641719],[23.3127319,42.6425779]]]]}},{"type":"Feature","properties":{"slug":"mladost","name_bg":"Младост","name_en":"Mladost","source":"OpenStreetMap contributors, ODbL 1.0"},"geometry":{"type":"MultiPolygon","coordinates":[[[[23.3640561,42.6239005],[23.3579568,42.6243538],[23.3639072,42.6399373],[23.3632855,42.6407453],[23.3632586,42.6412859],[23.3651021,42.6497559],[23.367888,42.6565943],[23.367879,42.668971],[23.3761336,42.675014],[23.3815205,42.6740278],[23.389817,42.6630119],[23.4008134,42.6436959],[23.418558,42.6369201],[23.4182487,42.6243584],[23.4158299,42.6225762],[23.4054621,42.6200794],[23.4038386,42.6204803],[23.4049902,42.6224745],[23.4041085,42.6224995],[23.4008911,42.6226187],[23.3990094,42.6226725],[23.3978909,42.6227336],[23.3962292,42.6227733],[23.3956902,42.6227928],[23.3950368,42.6228182],[23.3939298,42.6228613],[23.3930522,42.6228955],[23.3926219,42.6229127],[23.3855,42.6231695],[23.3832353,42.6232053],[23.3822349,42.6232349],[23.3640561,42.6239005]]]]}},{"type":"Feature","properties":{"slug":"nadezhda","name_bg":"Надежда","name_en":"Nadejda","source":"OpenStreetMap contributors, ODbL 1.0"},"geometry":{"type":"MultiPolygon","coordinates":[[[[23.2891628,42.7252011],[23.2880515,42.7256607],[23.2864335,42.726373],[23.2862461,42.731463],[23.2975381,42.7379868],[23.2934866,42.7407595],[23.2933643,42.7410713],[23.2936823,42.7425655],[23.291915,42.7431071],[23.294595393,42.744578623],[23.3040227,42.7532351],[23.2849817,42.7562998],[23.2822325,42.7582436],[23.2797919,42.7650312],[23.279094,42.7676253],[23.2897977,42.7826731],[23.3187553,42.7867451],[23.323151,42.786786],[23.3471161,42.7780156],[23.3314493,42.7560911],[23.3178073,42.7280759],[23.3103892,42.7165737],[23.302445,42.7163695],[23.3032986,42.7185837],[23.2891628,42.7252011]]]]}},{"type":"Feature","properties":{"slug":"novi-iskar","name_bg":"Нови Искър","name_en":"Novi Iskar","source":"OpenStreetMap contributors, ODbL 1.0"},"geometry":{"type":"MultiPolygon","coordinates":[[[[23.2559884,42.7987921],[23.251401,42.7962364],[23.2509784,42.7964756],[23.257533417,42.799652699],[23.2559884,42.7987921]]],[[[23.244288724,42.813169933],[23.25105,42.806089],[23.2507863,42.7980831],[23.244288724,42.813169933]]],[[[23.24277,42.814167],[23.243573265,42.814831168],[23.244288724,42.813169933],[23.24277,42.814167]]],[[[23.2423481,42.8176759],[23.244904,42.815922],[23.243573265,42.814831168],[23.2423481,42.8176759]]],[[[23.252136953,42.831966204],[23.252778,42.825693],[23.2423481,42.8176759],[23.252136953,42.831966204]]],[[[23.251185,42.832659],[23.252738,42.833817],[23.2539796,42.8346562],[23.252136953,42.831966204],[23.251185,42.832659]]],[[[23.253517,42.835595],[23.249629,42.840189],[23.252475065,42.845013205],[23.2539796,42.8346562],[23.253517,42.835595]]],[[[23.251637084,42.850781751],[23.255423,42.849799],[23.252475065,42.845013205],[23.251637084,42.850781751]]],[[[23.251599,42.850783],[23.249577,42.850872],[23.250085,42.853719],[23.251252722,42.853427641],[23.251599,42.850783]]],[[[23.251142117,42.854189032],[23.252101,42.853715],[23.252088,42.853647],[23.251252722,42.853427641],[23.251142117,42.854189032]]],[[[23.250978,42.854317],[23.249706,42.856113],[23.250644,42.857618],[23.251142117,42.854189032],[23.250978,42.854317]]],[[[23.250396,42.857834],[23.247592,42.860845],[23.247326716,42.866477243],[23.250644,42.857618],[23.250396,42.857834]]],[[[23.2472472,42.8666896],[23.247426,42.866698],[23.247501,42.866632],[23.247326716,42.866477243],[23.2472472,42.8666896]]],[[[23.247522,42.867065],[23.247790461,42.867274227],[23.2472472,42.8666896],[23.247522,42.867065]]],[[[23.249699971,42.869329136],[23.249451,42.868349],[23.247790461,42.867274227],[23.249699971,42.869329136]]],[[[23.249714,42.86936],[23.250864,42.87171],[23.252770841,42.872633835],[23.249699971,42.869329136],[23.249714,42.86936]]],[[[23.264349249,42.885093875],[23.26004,42.874926],[23.252770841,42.872633835],[23.264349249,42.885093875]]],[[[23.264401,42.885264],[23.263871,42.892859],[23.273795914,42.895259851],[23.264349249,42.885093875],[23.264401,42.885264]]],[[[23.273823,42.895289],[23.273813,42.895268],[23.273795914,42.895259851],[23.273823,42.895289]]],[[[23.273869,42.895311],[23.283722,42.896041],[23.293823,42.88987],[23.273823,42.895289],[23.273869,42.895311]]],[[[23.293922468,42.88978905],[23.29388,42.889798],[23.2937845,42.8898722],[23.293922468,42.88978905]]],[[[23.294122,42.889747],[23.304134,42.885785],[23.30664119,42.882123799],[23.293922468,42.88978905],[23.294122,42.889747]]],[[[23.3067882,42.8820352],[23.306712,42.88206],[23.30664119,42.882123799],[23.3067882,42.8820352]]],[[[23.306968,42.882099],[23.313338,42.885337],[23.319982,42.883578],[23.320646,42.880733],[23.317942,42.880082],[23.321619149,42.875546692],[23.306968,42.882099]]],[[[23.3297154,42.8720046],[23.324331,42.871681],[23.321619149,42.875546692],[23.3297154,42.8720046]]],[[[23.330537882,42.87132854],[23.329694,42.87147],[23.3297154,42.8720046],[23.330537882,42.87132854]]],[[[23.330842,42.871282],[23.335563,42.869305],[23.337731809,42.865415315],[23.330537882,42.87132854],[23.330842,42.871282]]],[[[23.3377401,42.8654085],[23.337732,42.865412],[23.337731809,42.865415315],[23.3377401,42.8654085]]],[[[23.4119456,42.8533912],[23.406279,42.851749],[23.406316,42.848468],[23.386081,42.847592],[23.376273,42.84007],[23.36907,42.839638],[23.365735,42.841802],[23.373851,42.847939],[23.36689,42.852541],[23.341978,42.856012],[23.342657,42.864036],[23.3377401,42.8654085],[23.4119456,42.8533912]]],[[[23.413035503,42.853961475],[23.412274,42.853374],[23.4119456,42.8533912],[23.413035503,42.853961475]]],[[[23.413142,42.85404],[23.413228115,42.854062256],[23.413035503,42.853961475],[23.413142,42.85404]]],[[[23.413749809,42.854335224],[23.413583,42.854112],[23.413228115,42.854062256],[23.413749809,42.854335224]]],[[[23.413754,42.854346],[23.414598,42.856525],[23.419349436,42.85726514],[23.413749809,42.854335224],[23.413754,42.854346]]],[[[23.4206526,42.857947],[23.419725,42.857317],[23.419349436,42.85726514],[23.4206526,42.857947]]],[[[23.420868,42.858199],[23.421218,42.858429],[23.422801433,42.85849674],[23.4206526,42.857947],[23.420868,42.858199]]],[[[23.427361274,42.859663291],[23.425538,42.858527],[23.422801433,42.85849674],[23.427361274,42.859663291]]],[[[23.427381,42.859741],[23.429691,42.861239],[23.433899019,42.861335854],[23.427361274,42.859663291],[23.427381,42.859741]]],[[[23.4350781,42.8616375],[23.434582,42.861457],[23.433899019,42.861335854],[23.4350781,42.8616375]]],[[[23.435174,42.861901],[23.435423,42.86226],[23.435707766,42.862472998],[23.4350781,42.8616375],[23.435174,42.861901]]],[[[23.436164401,42.863078902],[23.436029,42.862724],[23.435707766,42.862472998],[23.436164401,42.863078902]]],[[[23.436183,42.863144],[23.436278,42.863601],[23.436899179,42.864053872],[23.436164401,42.863078902],[23.436183,42.863144]]],[[[23.4407384,42.8691481],[23.440477,42.866745],[23.436899179,42.864053872],[23.4407384,42.8691481]]],[[[23.443996816,42.869954531],[23.441555,42.868901],[23.4407384,42.8691481],[23.443996816,42.869954531]]],[[[23.444338,42.870162],[23.448499,42.871992],[23.4498684,42.8714077],[23.443996816,42.869954531],[23.444338,42.870162]]],[[[23.450028,42.871356],[23.450107735,42.87126985],[23.4498684,42.8714077],[23.450028,42.871356]]],[[[23.4648259,42.8627926],[23.453588,42.863413],[23.449811,42.87102],[23.450107735,42.87126985],[23.4648259,42.8627926]]],[[[23.464807,42.862815],[23.469361,42.87426],[23.4795082,42.8729818],[23.4648259,42.8627926],[23.464807,42.862815]]],[[[23.479611,42.872909],[23.479817,42.872785],[23.479995909,42.872584184],[23.4795082,42.8729818],[23.479611,42.872909]]],[[[23.481679906,42.871211264],[23.480286,42.871277],[23.479995909,42.872584184],[23.481679906,42.871211264]]],[[[23.48171,42.871214],[23.481848,42.871197],[23.481870593,42.871055802],[23.481679906,42.871211264],[23.48171,42.871214]]],[[[23.494584237,42.860690696],[23.489424,42.860488],[23.487897,42.864879],[23.482834,42.865298],[23.481870593,42.871055802],[23.494584237,42.860690696]]],[[[23.494613,42.860686],[23.49476,42.860623],[23.494815125,42.860502459],[23.494584237,42.860690696],[23.494613,42.860686]]],[[[23.4962947,42.8592962],[23.495652,42.859529],[23.494526,42.860163],[23.494815125,42.860502459],[23.4962947,42.8592962]]],[[[23.4964156,42.8592123],[23.4971404,42.8517767],[23.488561227,42.841036284],[23.4962947,42.8592962],[23.4964156,42.8592123]]],[[[23.470358696,42.798057318],[23.4721518,42.8151237],[23.4802664,42.8234145],[23.4803858,42.8329154],[23.488561227,42.841036284],[23.470358696,42.798057318]]],[[[23.4703597,42.7974501],[23.4697486,42.7918693],[23.46604983,42.787883424],[23.470358696,42.798057318],[23.4703597,42.7974501]]],[[[23.466011324,42.787792507],[23.4660178,42.7878157],[23.46604983,42.787883424],[23.466011324,42.787792507]]],[[[23.4659688,42.7876402],[23.465876847,42.787474985],[23.466011324,42.787792507],[23.4659688,42.7876402]]],[[[23.461523018,42.777194927],[23.4597431,42.7801263],[23.465876847,42.787474985],[23.461523018,42.777194927]]],[[[23.4616054,42.7771607],[23.4614102,42.7768956],[23.461386038,42.776871496],[23.461523018,42.777194927],[23.4616054,42.7771607]]],[[[23.461094205,42.776182433],[23.4609038,42.7762945],[23.461386038,42.776871496],[23.461094205,42.776182433]]],[[[23.4613255,42.7760463],[23.4619012,42.7740071],[23.4594744,42.7702572],[23.458715124,42.770565058],[23.4613255,42.7760463]]],[[[23.458441592,42.769919207],[23.4580142,42.770091],[23.4584235,42.7706833],[23.458715124,42.770565058],[23.458441592,42.769919207]]],[[[23.4590362,42.7696802],[23.4605474,42.7691736],[23.4557687,42.7636081],[23.458441592,42.769919207],[23.4590362,42.7696802]]],[[[23.4560394,42.7636135],[23.4557815,42.7583195],[23.4658528,42.7495487],[23.453828,42.7434775],[23.44385044,42.730569804],[23.4560394,42.7636135]]],[[[23.4405901,42.7215319],[23.4408809,42.7277041],[23.44385044,42.730569804],[23.4405901,42.7215319]]],[[[23.4416984,42.7183048],[23.4396526,42.7195237],[23.4397099,42.7213095],[23.4405901,42.7215319],[23.4416984,42.7183048]]],[[[23.4414041,42.718044],[23.4378066,42.7157938],[23.4364168,42.7193336],[23.4203819,42.7217917],[23.4159301,42.7253098],[23.4161664,42.7295702],[23.4076448,42.7307393],[23.4059104,42.7348496],[23.3969756,42.7375593],[23.3986878,42.7384648],[23.4414041,42.718044]]],[[[23.394150459,42.743779766],[23.3989765,42.7406772],[23.3986878,42.7384648],[23.394150459,42.743779766]]],[[[23.394107,42.7437852],[23.3837169,42.752256],[23.3816206,42.758457036],[23.394150459,42.743779766],[23.394107,42.7437852]]],[[[23.3797449,42.7606542],[23.3809598,42.7606901],[23.3816206,42.758457036],[23.3797449,42.7606542]]],[[[23.378337,42.7608322],[23.37596,42.7571616],[23.3383946,42.7606764],[23.3471161,42.7780156],[23.378337,42.7608322]]],[[[23.331279064,42.782890265],[23.3324676,42.7838716],[23.3471161,42.7780156],[23.331279064,42.782890265]]],[[[23.3312458,42.7828628],[23.33099592,42.782977417],[23.331279064,42.782890265],[23.3312458,42.7828628]]],[[[23.328561885,42.783726617],[23.3288021,42.7839837],[23.33099592,42.782977417],[23.328561885,42.783726617]]],[[[23.3275802,42.782676],[23.3213692,42.7838716],[23.323494537,42.785286355],[23.3275802,42.782676]]],[[[23.3187553,42.7867451],[23.323151,42.786786],[23.3235583,42.7853288],[23.323494537,42.785286355],[23.3187553,42.7867451]]],[[[23.3187328,42.7867254],[23.3170816,42.7802293],[23.3130005,42.779554],[23.2897977,42.7826731],[23.3187328,42.7867254]]],[[[23.2897381,42.7827101],[23.289753481,42.782743582],[23.2897977,42.7826731],[23.2897381,42.7827101]]],[[[23.28549072,42.789538203],[23.2911354,42.7888107],[23.2920376,42.7847748],[23.289753481,42.782743582],[23.28549072,42.789538203]]],[[[23.2850568,42.7895613],[23.2850635,42.7896211],[23.28512031,42.790128618],[23.28549072,42.789538203],[23.2850568,42.7895613]]],[[[23.280038976,42.798228002],[23.2874455,42.7934901],[23.28512031,42.790128618],[23.280038976,42.798228002]]],[[[23.2799397,42.7982017],[23.2799432,42.7982152],[23.279973048,42.798333088],[23.280038976,42.798228002],[23.2799397,42.7982017]]],[[[23.278574867,42.800561716],[23.2804691,42.8002874],[23.279973048,42.798333088],[23.278574867,42.800561716]]],[[[23.278566,42.800563],[23.2785644,42.8005784],[23.278574867,42.800561716],[23.278566,42.800563]]],[[[23.272419236,42.801038536],[23.2743153,42.8025708],[23.2785644,42.8005784],[23.272419236,42.801038536]]],[[[23.2721455,42.799994],[23.2735414,42.7988972],[23.268747,42.8000658],[23.269051508,42.801290704],[23.2721455,42.799994]]],[[[23.2656647,42.8015443],[23.2666206,42.8022003],[23.2691949,42.8018667],[23.269051508,42.801290704],[23.2656647,42.8015443]]],[[[23.2656626,42.8015397],[23.2649987,42.8002914],[23.264260694,42.801217682],[23.2656647,42.8015443],[23.2656626,42.8015397]]],[[[23.257533417,42.799652699],[23.2633776,42.8023172],[23.264260694,42.801217682],[23.257533417,42.799652699]]]]}},{"type":"Feature","properties":{"slug":"oborishte","name_bg":"Оборище","name_en":"Oborishte","source":"OpenStreetMap contributors, ODbL 1.0"},"geometry":{"type":"MultiPolygon","coordinates":[[[[23.3346887,42.6944798],[23.3311615,42.6968168],[23.3217389,42.6977169],[23.3238607,42.7049173],[23.3330831,42.7052227],[23.3529793,42.6981817],[23.3540137,42.6976262],[23.3544177,42.6971819],[23.3546764,42.6968934],[23.354912,42.6965205],[23.3552226,42.6927462],[23.3550219,42.6920782],[23.3534033,42.689323],[23.3515779,42.6865487],[23.34475,42.6924616],[23.3346887,42.6944798]]]]}},{"type":"Feature","properties":{"slug":"ovcha-kupel","name_bg":"Овча купел","name_en":"Ovcha kupel","source":"OpenStreetMap contributors, ODbL 1.0"},"geometry":{"type":"MultiPolygon","coordinates":[[[[23.1898896,42.6469202],[23.1730337,42.6491995],[23.168006,42.656004],[23.168388,42.657516],[23.146709,42.662289],[23.1423084,42.6668853],[23.139523,42.6772979],[23.1501442,42.6861585],[23.1571124,42.6976553],[23.1811033,42.6930391],[23.1877342,42.6947899],[23.1897721,42.691033],[23.1966263,42.698049],[23.2118211,42.7063027],[23.2303624,42.708938],[23.2303006,42.6903706],[23.2328673,42.6870673],[23.2357629,42.6859103],[23.2416678,42.6924539],[23.25349,42.6922458],[23.2585469,42.6902033],[23.2588881,42.6915215],[23.2614284,42.692258],[23.2687711,42.6901474],[23.2737299,42.6865014],[23.273761,42.6855987],[23.2774007,42.6835666],[23.2692022,42.6742226],[23.2693974,42.6740039],[23.2725734,42.6718045],[23.2718726,42.671405],[23.2670287,42.6686614],[23.2656544,42.6678816],[23.265173,42.6676093],[23.2630529,42.6663918],[23.2627763,42.6662528],[23.2606147,42.665457],[23.2597867,42.665166],[23.2518635,42.6716378],[23.2495912,42.6711024],[23.243513,42.670828],[23.2093966,42.6548602],[23.2084664,42.6545285],[23.2046166,42.6531557],[23.1997395,42.6528932],[23.1963602,42.6485747],[23.1898896,42.6469202]]]]}},{"type":"Feature","properties":{"slug":"pancharevo","name_bg":"Панчарево","name_en":"Pancharevo","source":"OpenStreetMap contributors, ODbL 1.0"},"geometry":{"type":"MultiPolygon","coordinates":[[[[23.388685,42.482628],[23.3808273,42.4897153],[23.349751,42.499906],[23.326015,42.510717],[23.290175,42.532721],[23.2998368,42.5447891],[23.285195,42.55851],[23.2853669,42.561699],[23.2907408,42.5670159],[23.2878729,42.5751823],[23.2892615,42.5845424],[23.2990282,42.5889351],[23.3114236,42.5888933],[23.3116679,42.5946235],[23.3177147,42.590745],[23.3196448,42.5921212],[23.3229716,42.5936218],[23.3381642,42.5977824],[23.3789182,42.6200868],[23.3882858,42.6230655],[23.3975777,42.6227509],[23.4049902,42.6224745],[23.4038386,42.6204803],[23.4139424,42.622144],[23.418558,42.6369201],[23.4480208,42.6331966],[23.4550891,42.655455],[23.4398683,42.658721],[23.4471076,42.6679937],[23.4571587,42.6649686],[23.4560306,42.6713208],[23.4550532,42.6770516],[23.4528324,42.6897067],[23.4497149,42.7077327],[23.4631812,42.706877],[23.4618662,42.7035916],[23.4821104,42.6939012],[23.4810023,42.6902577],[23.4941699,42.6865398],[23.4940277,42.6803317],[23.4974955,42.6810426],[23.497323,42.67513],[23.49393,42.67443],[23.495066537,42.659804681],[23.497965,42.657504],[23.496362,42.649646],[23.5036635,42.6487061],[23.502832298,42.646121889],[23.509764691,42.642346093],[23.531915,42.638786],[23.534375,42.637014],[23.532933234,42.62972712],[23.559492,42.61624],[23.558794,42.615534],[23.55942,42.613089],[23.559149,42.604223],[23.5587496,42.5998457],[23.5659045,42.5669142],[23.559755528,42.559975862],[23.564841,42.557505],[23.565594,42.555176],[23.5513322,42.5504712],[23.60329,42.505864],[23.62466,42.502596],[23.630115,42.500362],[23.628949686,42.496997888],[23.6605656,42.4557386],[23.661478356,42.43832762],[23.665301,42.436284],[23.662348,42.421739],[23.631964,42.415433],[23.615541,42.413238],[23.545778,42.412531],[23.533164,42.427884],[23.534958073,42.436046153],[23.530475,42.442605],[23.5229822,42.489905],[23.519766,42.49126],[23.4476701,42.5248623],[23.431527,42.514116],[23.425144,42.511177],[23.429493,42.509744],[23.429839,42.505206],[23.442365,42.501297],[23.440192,42.494449],[23.442985,42.49192],[23.444212747,42.486713551],[23.447498,42.483397],[23.447991,42.4818664],[23.447529,42.481312],[23.447942,42.480399],[23.4248131,42.4730278],[23.4134208,42.4639996],[23.388685,42.482628]],[[23.4628551,42.7063843],[23.4621356,42.7053669],[23.461870714,42.704702695],[23.4631812,42.706877],[23.4628551,42.7063843]]]]}},{"type":"Feature","properties":{"slug":"poduyane","name_bg":"Подуяне","name_en":"Poduyane","source":"OpenStreetMap contributors, ODbL 1.0"},"geometry":{"type":"MultiPolygon","coordinates":[[[[23.3741318,42.6889243],[23.3633848,42.6956221],[23.3330831,42.7052227],[23.3529691,42.7164975],[23.3547713,42.7270544],[23.3548773,42.7269791],[23.3598252,42.7246784],[23.3659482,42.7217597],[23.3669894,42.721272],[23.3703067,42.7196915],[23.375244059,42.716284359],[23.3920113,42.7147483],[23.392223,42.7100092],[23.3921312,42.7097091],[23.4031628,42.7061106],[23.3847816,42.6980732],[23.378972,42.6962701],[23.3737781,42.6959895],[23.3789162,42.6885559],[23.3789968,42.6881357],[23.3776681,42.6866741],[23.3741318,42.6889243]]]]}},{"type":"Feature","properties":{"slug":"serdika","name_bg":"Сердика","name_en":"Serdika","source":"OpenStreetMap contributors, ODbL 1.0"},"geometry":{"type":"MultiPolygon","coordinates":[[[[23.3029223,42.7079528],[23.3013378,42.7100258],[23.3012253,42.7101833],[23.3005955,42.7111086],[23.3004191,42.7113504],[23.2980148,42.7144666],[23.2977344,42.7148459],[23.3019325,42.7162241],[23.302445,42.7163695],[23.3042687,42.7168838],[23.3052034,42.7170757],[23.3213552,42.7369234],[23.32243,42.7396996],[23.3226124,42.7401707],[23.323854,42.7432701],[23.3256822,42.7480164],[23.3314493,42.7560911],[23.3471161,42.7780156],[23.3797449,42.7606542],[23.3543873,42.726468],[23.3529318,42.7161537],[23.352742,42.7158676],[23.3469159,42.711559],[23.346588,42.7113679],[23.3460658,42.7111194],[23.3330831,42.7052227],[23.3327677,42.7050935],[23.3292063,42.704564],[23.3280999,42.7045605],[23.3143049,42.7056282],[23.3040941,42.7060259],[23.3029223,42.7079528]]]]}},{"type":"Feature","properties":{"slug":"slatina","name_bg":"Слатина","name_en":"Slatina","source":"OpenStreetMap contributors, ODbL 1.0"},"geometry":{"type":"MultiPolygon","coordinates":[[[[23.3666515,42.669847],[23.3475935,42.683446],[23.3541594,42.6906267],[23.3546764,42.6968934],[23.3595091,42.6966888],[23.3605448,42.696468],[23.3641048,42.6954138],[23.3649492,42.6950368],[23.3658934,42.694469],[23.3776681,42.6866741],[23.3737781,42.6959895],[23.378972,42.6962701],[23.3792407,42.6970106],[23.3831642,42.697813],[23.3847816,42.6980732],[23.3914671,42.7030498],[23.3992447,42.7046766],[23.4263332,42.6975449],[23.425924,42.6937468],[23.4258824,42.6933718],[23.425737,42.692065],[23.4254058,42.6911131],[23.4232423,42.6889584],[23.417733,42.6850929],[23.4160672,42.682394],[23.4108268,42.6836887],[23.4051207,42.685167],[23.4025965,42.6857605],[23.4017815,42.6859588],[23.4013161,42.6860978],[23.4012617,42.6861193],[23.4011651,42.6861574],[23.4010833,42.6861897],[23.3940506,42.6717827],[23.3761336,42.675014],[23.3666515,42.669847]]]]}},{"type":"Feature","properties":{"slug":"sredets","name_bg":"Средец","name_en":"Sredec","source":"OpenStreetMap contributors, ODbL 1.0"},"geometry":{"type":"MultiPolygon","coordinates":[[[[23.3208067,42.6833383],[23.3217579,42.6887418],[23.3196789,42.688924],[23.3190077,42.6889848],[23.3208525,42.6968358],[23.3217389,42.6977169],[23.3311615,42.6968168],[23.34475,42.6924616],[23.3515779,42.6865487],[23.3417676,42.67748],[23.3413034,42.6778416],[23.3410952,42.6780124],[23.3401825,42.6787612],[23.3356789,42.682484],[23.333781,42.6840833],[23.3328284,42.6848774],[23.3307107,42.686622],[23.3300598,42.6863651],[23.3208067,42.6833383]]]]}},{"type":"Feature","properties":{"slug":"studentski","name_bg":"Студентски","name_en":"Studentski","source":"OpenStreetMap contributors, ODbL 1.0"},"geometry":{"type":"MultiPolygon","coordinates":[[[[23.3554402,42.6247412],[23.333703,42.6330679],[23.3336838,42.6450773],[23.3364692,42.6575682],[23.367879,42.668971],[23.3694717,42.6678372],[23.3699389,42.6616492],[23.368310597,42.660256674],[23.3651021,42.6497559],[23.3645568,42.6379001],[23.3579568,42.6243538],[23.3554402,42.6247412]]]]}},{"type":"Feature","properties":{"slug":"triaditsa","name_bg":"Триадица","name_en":"Triadica","source":"OpenStreetMap contributors, ODbL 1.0"},"geometry":{"type":"MultiPolygon","coordinates":[[[[23.2988284,42.6473411],[23.2830543,42.6537809],[23.286982,42.6638774],[23.2872935,42.6643665],[23.2875225,42.6646762],[23.2879126,42.6651098],[23.2880388,42.6652481],[23.2945067,42.671922],[23.2983396,42.6777401],[23.299641,42.6786004],[23.3004329,42.6788398],[23.3023768,42.6791989],[23.3026195,42.6794546],[23.3012962,42.684481],[23.3139738,42.6894705],[23.3152638,42.6967083],[23.3206389,42.6958454],[23.320927045,42.695794437],[23.3210913,42.695767],[23.3208388,42.694954],[23.3208238,42.6948828],[23.3199288,42.6919539],[23.3195817,42.6908242],[23.3190077,42.6889848],[23.3196789,42.688924],[23.3217579,42.6887418],[23.321778,42.6784701],[23.3094856,42.6724549],[23.3102696,42.6721998],[23.3103936,42.6721481],[23.3107339,42.6719327],[23.3111035,42.6721383],[23.3116584,42.6720226],[23.3120388,42.6719128],[23.3128898,42.6714706],[23.3139177,42.6707651],[23.3128414,42.6576118],[23.316497,42.6592642],[23.3139562,42.6446024],[23.3124634,42.641719],[23.3032592,42.6455012],[23.2988284,42.6473411]]]]}},{"type":"Feature","properties":{"slug":"vazrazhdane","name_bg":"Възраждане","name_en":"Vazrajdane","source":"OpenStreetMap contributors, ODbL 1.0"},"geometry":{"type":"MultiPolygon","coordinates":[[[[23.2872974,42.6898271],[23.2871286,42.6901129],[23.2949304,42.6941522],[23.2992398,42.7072113],[23.3238607,42.7049173],[23.3208525,42.6968358],[23.3210913,42.695767],[23.3192883,42.696056],[23.3186794,42.6961558],[23.3175663,42.6963358],[23.31698784,42.696429872],[23.3168091,42.6964583],[23.3165806,42.6964961],[23.3151846,42.6967212],[23.3140149,42.6969079],[23.312255,42.6962474],[23.3097587,42.6949916],[23.3053201,42.6926802],[23.295815,42.6897209],[23.2884962,42.6888958],[23.2872974,42.6898271]]]]}},{"type":"Feature","properties":{"slug":"vitosha","name_bg":"Витоша","name_en":"Vitosha","source":"OpenStreetMap contributors, ODbL 1.0"},"geometry":{"type":"MultiPolygon","coordinates":[[[[23.239325,42.570723],[23.2116864,42.5856756],[23.153409621,42.590433629],[23.146383,42.586655],[23.140439,42.589673],[23.139313,42.59156],[23.140979262,42.592714909],[23.139663,42.594176],[23.148693,42.599033],[23.152989,42.605476],[23.1728308,42.6161505],[23.170387,42.617801],[23.172894562,42.626536269],[23.163303,42.642389],[23.1730337,42.6491995],[23.1901509,42.6473066],[23.1904779,42.6471374],[23.1986778,42.6528361],[23.2084664,42.6545285],[23.2102657,42.6579495],[23.2408268,42.6706316],[23.2518635,42.6716378],[23.2597867,42.665166],[23.2725734,42.6718045],[23.2880388,42.6652481],[23.2871559,42.6641503],[23.2858952,42.6605074],[23.2849434,42.6571136],[23.284746,42.6564582],[23.2846578,42.6562419],[23.2830543,42.6537809],[23.351923,42.6256685],[23.3882858,42.6230655],[23.3793289,42.6201818],[23.3778564,42.6180113],[23.3740984,42.6148695],[23.3477975,42.5995958],[23.3196448,42.5921212],[23.2855267,42.5616809],[23.258543,42.563684],[23.250793656,42.568888453],[23.239325,42.570723]]]]}},{"type":"Feature","properties":{"slug":"vrabnitsa","name_bg":"Връбница","name_en":"Vrabnitsa","source":"OpenStreetMap contributors, ODbL 1.0"},"geometry":{"type":"MultiPolygon","coordinates":[[[[23.2623821,42.7271435],[23.2630279,42.7278374],[23.2668909,42.7315862],[23.2681007,42.7330712],[23.2682942,42.7336983],[23.2689208,42.7341394],[23.2561126,42.7457421],[23.2505519,42.7384143],[23.2502256,42.7379526],[23.2478141,42.7347872],[23.2410964,42.7385118],[23.2378757,42.7364092],[23.2121248,42.7451882],[23.200363,42.771102],[23.203276,42.776541],[23.212327,42.787477],[23.214756024,42.784875851],[23.2220197,42.7863374],[23.241777,42.796497],[23.2633776,42.8023172],[23.2743153,42.8025708],[23.2804691,42.8002874],[23.2874455,42.7934901],[23.28549072,42.789538203],[23.2921553,42.7880619],[23.2905245,42.7798209],[23.2797027,42.7657098],[23.2822359,42.7586188],[23.3040227,42.7532351],[23.2951988,42.7462977],[23.2937542,42.7414943],[23.2933643,42.7410713],[23.2975381,42.7379868],[23.2862461,42.731463],[23.2864335,42.726373],[23.2948662,42.72299],[23.2799341,42.7169954],[23.2623821,42.7271435]]]]}}]}